satname,norad_id,inclination_deg,eccentricity,mean_motion_rev_per_day,perigee_km,apogee_km,l1,l2
STARLINK-1297,45395,53.0543,0.0001313,15.4604522,427.41494410881296,429.20231673136186,1 45395U 20019AM  26027.91668981  .00067138  00000+0  13492-2 0  9998,2 45395  53.0543 326.3697 0001313 116.6109 109.3168 15.46045220  5738
STARLINK-1307,45397,53.0575,0.0002575,15.45418807,428.39463524889834,431.9009019047153,1 45397U 20019AP  26027.43094735  .00176764  00000+0  35636-2 0  9997,2 45397  53.0575 328.1438 0002575  51.2421 308.8815 15.45418807323664
STARLINK-1255,45399,53.0464,0.000682,15.44110565,429.34688276478755,438.63862775095913,1 45399U 20019AR  26027.91668981  .00061062  00000+0  13116-2 0  9995,2 45399  53.0464 297.8217 0006820 100.1122  77.4040 15.44110565  5934
STARLINK-1260,45404,53.1568,0.0001869,15.29350329,476.47184248338635,479.0345742432737,1 45404U 20019AW  26027.91668981  .00005751  00000+0  21151-3 0  9994,2 45404  53.1568 318.5743 0001869 100.8446 151.1391 15.29350329  5842
STARLINK-1263,45405,53.1559,0.0001702,15.29356895,476.5667162107111,478.9004545579746,1 45405U 20019AX  26027.91668981 -.00008889  00000+0 -29605-3 0  9994,2 45405  53.1559 318.5921 0001702  96.1837 226.8498 15.29356895  5637
STARLINK-1265,45406,53.1577,0.0001609,15.29381793,476.5560795317124,478.7622747415153,1 45406U 20019AY  26027.91668981 -.00070980  00000+0 -24689-2 0  9992,2 45406  53.1577 318.6631 0001609 102.3763 141.8489 15.29381793  5632
STARLINK-1278,45408,53.0505,0.000624,15.47292765,420.40461735291774,428.8944949750103,1 45408U 20019BA  26027.81657344  .00108918  00000+0  20791-2 0  9995,2 45408  53.0505 327.0225 0006240  45.7941 314.3577 15.47292765323617
STARLINK-1296,45412,53.1375,0.0001584,15.25275549,488.8702314193142,491.0460439589333,1 45412U 20019BE  26027.91668981  .00754822  00000+0  27497-1 0  9990,2 45412  53.1375 318.5389 0001584  91.6079 201.4127 15.25275549  5635
STARLINK-1298,45413,53.0422,0.0007971,15.76560226,334.83985652690535,345.55022146347073,1 45413U 20019BF  26027.91668981  .00134323  00000+0  81637-3 0  9997,2 45413  53.0422 260.2967 0007971 148.5056 295.4439 15.76560226  5809
STARLINK-1309,45414,53.0699,0.0001344,15.27514942,482.3217404159559,484.16607960456713,1 45414U 20019BG  26027.91668981  .01718034  00000+0  56775-1 0  9999,2 45414  53.0699 318.6954 0001344 115.4364 346.5600 15.27514942  5733
STARLINK-1316,45415,53.1573,0.0001742,15.29368207,476.5054921940682,478.8940657278581,1 45415U 20019BH  26027.91668981 -.00050078  00000+0 -17340-2 0  9994,2 45415  53.1573 318.6633 0001742 103.6148 260.5624 15.29368207  5533
STARLINK-1318,45416,53.0394,0.0004687,15.83975465,316.0720858290715,322.350179968852,1 45416U 20019BJ  26027.91668981  .00283963  00000+0  12066-2 0  9994,2 45416  53.0394 247.3237 0004687 186.0778  37.0449 15.83975465  6035
STARLINK-1286,45417,53.052,0.0002229,15.47698144,421.94555343650336,424.97770610565476,1 45417U 20019BK  26027.12649753  .00045835  00000+0  87503-3 0  9997,2 45417  53.0520 329.9446 0002229  47.2517 312.8677 15.47698144323782
STARLINK-1308,45419,53.0568,0.0001779,15.41165838,441.45392722559427,443.8807694127254,1 45419U 20019BM  26027.91668981  .00876224  00000+0  19155-1 0  9990,2 45419  53.0568 346.4393 0001779 102.4842 100.8612 15.41165838  5622
STARLINK-1329,45531,53.0541,0.0006918,15.47402474,419.6220674033266,429.0339579948977,1 45531U 20025A   26027.42451455  .00103708  00000+0  19736-2 0  9990,2 45531  53.0541 279.9100 0006918 108.2024 251.9737 15.47402474319046
STARLINK-1338,45532,53.0515,0.0005078,15.45890387,425.30655810025564,432.2196458438184,1 45532U 20025B   26025.70626240  .00109887  00000+0  22015-2 0  9994,2 45532  53.0515 291.1053 0005078 114.8434 245.3101 15.45890387318734
STARLINK-1350,45535,53.0718,0.0001967,15.34948769,459.7273965097593,462.41794159356505,1 45535U 20025E   26026.93946063  .00015617  00000+0  46424-3 0  9999,2 45535  53.0718 229.0446 0001967 120.6826 239.4370 15.34948769319741
STARLINK-1362,45538,53.054,0.0001534,15.06819468,544.8640958794285,546.9883984836642,1 45538U 20025H   26027.73099170  .00021896  00000+0  14676-2 0  9998,2 45538  53.0540 290.2081 0001534  89.3384 270.7781 15.06819468318927
STARLINK-1368,45540,53.0756,0.0001161,15.11857626,529.7329619147877,531.3371555668273,1 45540U 20025K   26027.91668981  .00054149  00000+0  31236-2 0  9991,2 45540  53.0756 289.5746 0001161 115.3508 191.3723 15.11857626  5686
STARLINK-1371,45542,53.0542,0.0003929,15.41196819,439.89608243440216,445.25579866308635,1 45542U 20025M   26027.71022719  .00093404  00000+0  21986-2 0  9992,2 45542  53.0542 284.2946 0003929 119.3911 240.7486 15.41196819319003
STARLINK-1372,45543,53.0545,0.0001536,15.06409002,546.1202389414739,548.2476975429181,1 45543U 20025N   26026.01808343  .00001125  00000+0  94378-4 0  9996,2 45543  53.0545 298.1790 0001536  78.8291 281.2870 15.06409002317759
STARLINK-1373,45544,53.0526,0.0003934,15.42558706,435.8791012998763,441.2424791212143,1 45544U 20025P   26026.76052883  .00133934  00000+0  29929-2 0  9991,2 45544  53.0526 289.1569 0003934 128.6394 231.4964 15.42558706318854
STARLINK-1294,45551,53.0352,0.000523,15.82169359,320.8016358008872,327.81239223955254,1 45551U 20025W   26027.91668981  .00297701  00000+0  13745-2 0  9991,2 45551  53.0352 183.0930 0005230 292.9594 140.6124 15.82169359  5815
STARLINK-1325,45554,53.0337,0.0005163,16.11707608,238.74494905494976,245.58107084522362,1 45554U 20025Z   26027.89132429  .01494483  16248-2  14118-2 0  9990,2 45554  53.0337 169.0302 0005163 278.8808  81.1642 16.11707608320647
STARLINK-1327,45555,53.0529,0.0003619,15.45404235,427.7266327675288,432.6545002601706,1 45555U 20025AA  26027.91668981  .00066891  00000+0  13739-2 0  9992,2 45555  53.0529 262.2355 0003619 132.5434 332.0208 15.45404235  5888
STARLINK-1356,45564,53.0541,0.0001249,15.38712799,449.0618188928702,450.7674661931778,1 45564U 20025AK  26027.91668981  .00051961  00000+0  13392-2 0  9999,2 45564  53.0541 267.1885 0001249  78.7556   0.1453 15.38712799  5735
STARLINK-1357,45565,53.0573,0.0005804,15.46490688,423.051796851586,430.95120162150033,1 45565U 20025AL  26027.28558897  .00122768  00000+0  24041-2 0  9991,2 45565  53.0573 237.0108 0005804 127.1986 232.9551 15.46490688319632
STARLINK-1361,45567,53.0544,0.0001698,15.37595387,452.06236325812915,454.38229288594266,1 45567U 20025AN  26027.91668981  .01584177  00000+0  38544-1 0  9998,2 45567  53.0544 267.6829 0001698 102.5108 345.8619 15.37595387  5836
STARLINK-1363,45568,53.0498,9e-05,15.64690964,373.51998491805534,374.7353925620282,1 45568U 20025AP  26027.91668981  .00150108  00000+0  14967-2 0  9995,2 45568  53.0498 239.7275 0000900  33.1518 262.2616 15.64690964  5970
STARLINK-1366,45569,53.0478,5.8e-05,15.64469599,374.37294763102,375.1562842184667,1 45569U 20025AQ  26027.91668981  .00163472  00000+0  16410-2 0  9999,2 45569  53.0478 240.3599 0000580  78.7361 200.0446 15.64469599  5802
STARLINK-1376,45570,53.1641,0.0001106,15.2935207,476.98974436017943,478.5062661233378,1 45570U 20025AR  26027.67911727 -.00000955  00000+0 -20773-4 0  9990,2 45570  53.1641 268.0477 0001106  73.7047 286.4075 15.29352070319226
STARLINK-1320,45572,53.0509,0.0005765,15.59453576,385.3360619238774,393.1388446685269,1 45572U 20025AT  26027.91668981  .00178241  00000+0  21674-2 0  9991,2 45572  53.0509 185.6475 0005765 219.6030 116.6753 15.59453576  5876
STARLINK-1321,45573,53.0547,0.0003591,15.41508525,439.20745135279503,444.1054270008117,1 45573U 20025AU  26026.63762262  .00082938  00000+0  19359-2 0  9991,2 45573  53.0547 258.6540 0003591 121.0217 239.1140 15.41508525318965
STARLINK-1331,45578,53.0569,0.0001227,15.26524982,485.36776339691187,487.05227415531954,1 45578U 20025AZ  26027.91668981  .01088105  00000+0  38058-1 0  9990,2 45578  53.0569 258.7441 0001227  89.8889  28.8314 15.26524982  5580
STARLINK-1333,45580,53.1601,0.0001156,15.29911263,475.2849744656214,476.86966881678563,1 45580U 20025BB  26026.82659324  .00117987  00000+0  39682-2 0  9998,2 45580  53.1601 272.2563 0001156  69.1480 290.9645 15.29911263319094
STARLINK-1335,45581,53.05,0.000233,15.06397989,545.6041137204165,548.8313290205751,1 45581U 20025BC  26027.66109188  .00001624  00000+0  12795-3 0  9997,2 45581  53.0500 260.8006 0002330  92.6080 267.5176 15.06397989319322
STARLINK-1337,45582,53.054,0.0001181,15.32583817,467.29810756129064,468.9151903111688,1 45582U 20025BD  26027.91668981  .01740602  00000+0  49168-1 0  9996,2 45582  53.0540 258.0805 0001181  64.8427 214.6399 15.32583817  5735
STARLINK-1347,45586,53.0589,0.0005008,15.4500761,427.94551780554593,434.76590570563985,1 45586U 20025BH  26027.54167994  .00053721  00000+0  11218-2 0  9991,2 45586  53.0589 226.9171 0005008 138.1696 221.9694 15.45007610319785
STARLINK-1364,45589,53.067,0.0001291,15.38691047,449.09748332120034,450.8605028706179,1 45589U 20025BL  26027.91668981  .01063812  00000+0  25149-1 0  9997,2 45589  53.0670 257.5924 0001291  84.5054  64.8232 15.38691047  5832
STARLINK-1365,45590,53.0539,0.0001834,15.41198768,441.31927253301,443.82110793038646,1 45590U 20025BM  26027.91668981  .00146668  00000+0  34232-2 0  9993,2 45590  53.0539 287.1674 0001834 323.7457 315.1442 15.41198768  5737
STARLINK-1443,45660,53.054,0.0001649,15.06410371,546.0377877635492,548.3217572351195,1 45660U 20035D   26027.02434533 -.00002049  00000+0 -11866-3 0  9993,2 45660  53.0540 253.6616 0001649  90.2308 269.8870 15.06410371312454
STARLINK-1446,45663,53.024,0.0004674,15.4099275,439.98980881528223,446.3663741628061,1 45663U 20035G   26027.71795049  .00027588  00000+0  66619-3 0  9993,2 45663  53.0240 193.7224 0004674 134.6922 225.4463 15.40992750313359
STARLINK-1448,45665,53.0538,0.0001464,15.3764381,452.0788166168777,454.0789966343373,1 45665U 20035J   26027.91668981  .01480597  00000+0  35628-1 0  9999,2 45665  53.0538 247.7175 0001464 111.5965 308.0303 15.37643810  5839
